ONEWEB-0427             
1 50499U 21132AG  24275.49421140  .00000007  00000+0 -15484-4 0  9994
2 50499  87.9046  99.5863 0001600  79.0041 281.1271 13.18686518139418
ONEWEB-0429             
1 50500U 21132AH  24275.48154859 -.00000002  00000+0 -37081-4 0  9999
2 50500  87.9054  99.6014 0001768  92.7157 267.4177 13.18685128139388
ONEWEB-0430             
1 50501U 21132AJ  24275.47047187  .00000079  00000+0  16644-3 0  9997
2 50501  87.9051  99.6046 0002094  85.1832 274.9540 13.18685161139429
ONEWEB-0432             
1 50502U 21132AK  24275.50210461  .00003707  00000+0  93691-2 0  9996
2 50502  87.9047  99.5899 0001813  81.1831 278.9507 13.18668522139387
ONEWEB-0440             
1 50503U 21132AL  24275.48943324  .00000063  00000+0  12791-3 0  9990
2 50503  87.9050  99.5844 0001528 103.0778 257.0525 13.18683456139379
ONEWEB-0450             
1 50504U 21132AM  24275.48328185  .00000057  00000+0  11215-3 0  9996
2 50504  87.9051  99.6140 0002051  93.3210 266.8157 13.18686871139402
ONEWEB-0410             
1 51622U 22012A   24275.32571557  .00000255  00000+0  62295-3 0  9996
2 51622  87.9109 130.1235 0001107  22.4662 337.6517 13.17648620131542
ONEWEB-0411             
1 51623U 22012B   24275.40129173 -.00000435  00000+0 -12828-2 0  9997
2 51623  87.8965 160.4190 0002392  72.2962 287.8426 13.10371260127592
